PROGRESS-MS 32          
1 65586U 25204A   25316.22557474  .00019835  00000+0  36009-3 0  9992
2 65586  51.6334 293.5281 0004132  61.4658 298.6746 15.49560899   271
CYGNUS NG-23            
1 65616U 25208A   25316.22557474  .00019835  00000+0  36009-3 0  9990
2 65616  51.6334 293.5281 0004132  61.4658 298.6746 15.49560899   220
DRAGONFLY               
1 65729U 98067XH  25316.12271715  .00126999  00000+0  14007-2 0  9991
2 65729  51.6298 291.3442 0004615 112.7856 247.3626 15.62163930  8366
1998-067XJ              
1 65730U 98067XJ  25316.15058023  .00451587  00000+0  28010-2 0  9994
2 65730  51.6255 289.2653 0011346 100.8027 259.4250 15.75096532  8395
1998-067XK              
1 65731U 98067XK  25316.29113810  .00161200  00000+0  19583-2 0  9991
2 65731  51.6313 290.9705 0005555  92.3444 267.8185 15.59508438  8385
RSP-03                  
1 65732U 98067XL  25316.65553736  .00139118  00000+0  16027-2 0  9990
2 65732  51.6305 288.9039 0006300  93.9871 266.1842 15.60977269  8458
GHS-01                  
1 65733U 98067XM  25316.30061279  .00257762  00000+0  26727-2 0  9993
2 65733  51.6308 290.2844 0005291 112.5768 247.5787 15.63275703  8406
YOTSUBA-KULOVER         
1 65941U 98067XN  25316.16252521  .00072203  00000+0  10668-2 0  9992
2 65941  51.6314 293.1086 0002582  48.1181 312.0030 15.54668545  5098
BOTAN                   
1 65942U 98067XP  25315.37847341  .00099617  00000+0  14017-2 0  9995
2 65942  51.6317 296.8738 0004799  56.4340 303.7109 15.55845999  4978
E-KAGAKU-1              
1 65943U 98067XQ  25316.16209103  .00066872  00000+0  98937-3 0  9993
2 65943  51.6324 293.1065 0004336  45.9604 314.1744 15.54657908  5098
HTV-X1                  
1 66174U 25241A   25316.22557474  .00019835  00000+0  36009-3 0  9997
2 66174  51.6334 293.5281 0004132  61.4658 298.6746 15.49560899  1456
